[{"OBJECT_NAME":"STARLINK-4201","OBJECT_ID":"2022-062AC","EPOCH":"2026-03-09T04:00:17.746848","MEAN_MOTION":15.08837656,"ECCENTRICITY":0.00015063,"INCLINATION":53.2195,"RA_OF_ASC_NODE":26.5158,"ARG_OF_PERICENTER":67.3477,"MEAN_ANOMALY":292.7674,"EPHEMERIS_TYPE":0,"CLASSIFICATION_TYPE":"U","NORAD_CAT_ID":52856,"ELEMENT_SET_NO":999,"REV_AT_EPOCH":20584,"BSTAR":-1.688558e-5,"MEAN_MOTION_DOT":-5.57e-6,"MEAN_MOTION_DDOT":0},{"OBJECT_NAME":"COSMOS 375 DEB","OBJECT_ID":"1970-091AX","EPOCH":"2026-03-08T20:29:59.773920","MEAN_MOTION":14.03576179,"ECCENTRICITY":0.05047105,"INCLINATION":62.6067,"RA_OF_ASC_NODE":236.2052,"ARG_OF_PERICENTER":173.5052,"MEAN_ANOMALY":187.2884,"EPHEMERIS_TYPE":0,"CLASSIFICATION_TYPE":"U","NORAD_CAT_ID":19949,"ELEMENT_SET_NO":999,"REV_AT_EPOCH":86548,"BSTAR":0.0018818841,"MEAN_MOTION_DOT":9.26e-5,"MEAN_MOTION_DDOT":0}]
